CCSDS_OMM_VERS = 2.0
CREATION_DATE  = 
ORIGINATOR     = 

OBJECT_NAME    = STARLINK-36320
OBJECT_ID      = 2026-042X
CENTER_NAME    = EARTH
REF_FRAME      = TEME
TIME_SYSTEM    = UTC
MEAN_ELEMENT_THEORY = SGP/SGP4

EPOCH          = 2026-03-19T16:00:01.999584
MEAN_MOTION    = 15.79427616
ECCENTRICITY   = .0000989
INCLINATION    = 53.1587
RA_OF_ASC_NODE = 144.5867
ARG_OF_PERICENTER = 91.1258
MEAN_ANOMALY   = 258.3623

EPHEMERIS_TYPE = 0
CLASSIFICATION_TYPE = U
NORAD_CAT_ID   = 68090
ELEMENT_SET_NO = 999
REV_AT_EPOCH   = 364
BSTAR          = -.11689E-1
MEAN_MOTION_DOT = -.1885627E-1
MEAN_MOTION_DDOT = 0

CCSDS_OMM_VERS = 2.0
CREATION_DATE  = 
ORIGINATOR     = 

OBJECT_NAME    = STARLINK-36324
OBJECT_ID      = 2026-042Y
CENTER_NAME    = EARTH
REF_FRAME      = TEME
TIME_SYSTEM    = UTC
MEAN_ELEMENT_THEORY = SGP/SGP4

EPOCH          = 2026-03-19T16:00:01.999584
MEAN_MOTION    = 15.75231488
ECCENTRICITY   = .000096
INCLINATION    = 53.1584
RA_OF_ASC_NODE = 144.6273
ARG_OF_PERICENTER = 55.4812
MEAN_ANOMALY   = 273.9597

EPHEMERIS_TYPE = 0
CLASSIFICATION_TYPE = U
NORAD_CAT_ID   = 68091
ELEMENT_SET_NO = 999
REV_AT_EPOCH   = 364
BSTAR          = -.16937E-4
MEAN_MOTION_DOT = -.3233E-4
MEAN_MOTION_DDOT = 0

CCSDS_OMM_VERS = 2.0
CREATION_DATE  = 
ORIGINATOR     = 

OBJECT_NAME    = STARLINK-36896
OBJECT_ID      = 2026-042Z
CENTER_NAME    = EARTH
REF_FRAME      = TEME
TIME_SYSTEM    = UTC
MEAN_ELEMENT_THEORY = SGP/SGP4

EPOCH          = 2026-03-19T16:00:01.999584
MEAN_MOTION    = 15.80910193
ECCENTRICITY   = .0001199
INCLINATION    = 53.1622
RA_OF_ASC_NODE = 144.5763
ARG_OF_PERICENTER = 74.7812
MEAN_ANOMALY   = 279.8185

EPHEMERIS_TYPE = 0
CLASSIFICATION_TYPE = U
NORAD_CAT_ID   = 68092
ELEMENT_SET_NO = 999
REV_AT_EPOCH   = 365
BSTAR          = -.95674E-4
MEAN_MOTION_DOT = -.19572E-3
MEAN_MOTION_DDOT = 0

CCSDS_OMM_VERS = 2.0
CREATION_DATE  = 
ORIGINATOR     = 

OBJECT_NAME    = STARLINK-36251
OBJECT_ID      = 2026-042AA
CENTER_NAME    = EARTH
REF_FRAME      = TEME
TIME_SYSTEM    = UTC
MEAN_ELEMENT_THEORY = SGP/SGP4

EPOCH          = 2026-03-19T16:00:01.999584
MEAN_MOTION    = 15.80875845
ECCENTRICITY   = .0001029
INCLINATION    = 53.1584
RA_OF_ASC_NODE = 144.5588
ARG_OF_PERICENTER = 82.8445
MEAN_ANOMALY   = 280.3365

EPHEMERIS_TYPE = 0
CLASSIFICATION_TYPE = U
NORAD_CAT_ID   = 68093
ELEMENT_SET_NO = 999
REV_AT_EPOCH   = 364
BSTAR          = .12497E-3
MEAN_MOTION_DOT = .24037E-3
MEAN_MOTION_DDOT = 0

CCSDS_OMM_VERS = 2.0
CREATION_DATE  = 
ORIGINATOR     = 

OBJECT_NAME    = STARLINK-36787
OBJECT_ID      = 2026-042AB
CENTER_NAME    = EARTH
REF_FRAME      = TEME
TIME_SYSTEM    = UTC
MEAN_ELEMENT_THEORY = SGP/SGP4

EPOCH          = 2026-03-19T16:00:01.999584
MEAN_MOTION    = 15.75242612
ECCENTRICITY   = .0000851
INCLINATION    = 53.1588
RA_OF_ASC_NODE = 144.5739
ARG_OF_PERICENTER = 59.0534
MEAN_ANOMALY   = 296.1342

EPHEMERIS_TYPE = 0
CLASSIFICATION_TYPE = U
NORAD_CAT_ID   = 68094
ELEMENT_SET_NO = 999
REV_AT_EPOCH   = 364
BSTAR          = -.10909E-3
MEAN_MOTION_DOT = -.17328E-3
MEAN_MOTION_DDOT = 0

CCSDS_OMM_VERS = 2.0
CREATION_DATE  = 
ORIGINATOR     = 

OBJECT_NAME    = STARLINK-36790
OBJECT_ID      = 2026-042AC
CENTER_NAME    = EARTH
REF_FRAME      = TEME
TIME_SYSTEM    = UTC
MEAN_ELEMENT_THEORY = SGP/SGP4

EPOCH          = 2026-03-19T16:00:01.999584
MEAN_MOTION    = 15.80871180
ECCENTRICITY   = .0001101
INCLINATION    = 53.1621
RA_OF_ASC_NODE = 144.5672
ARG_OF_PERICENTER = 71.4061
MEAN_ANOMALY   = 287.5044

EPHEMERIS_TYPE = 0
CLASSIFICATION_TYPE = U
NORAD_CAT_ID   = 68095
ELEMENT_SET_NO = 999
REV_AT_EPOCH   = 364
BSTAR          = .56337E-4
MEAN_MOTION_DOT = .10433E-3
MEAN_MOTION_DDOT = 0

CCSDS_OMM_VERS = 2.0
CREATION_DATE  = 
ORIGINATOR     = 

OBJECT_NAME    = STARLINK-36328
OBJECT_ID      = 2026-042AD
CENTER_NAME    = EARTH
REF_FRAME      = TEME
TIME_SYSTEM    = UTC
MEAN_ELEMENT_THEORY = SGP/SGP4

EPOCH          = 2026-03-19T16:00:01.999584
MEAN_MOTION    = 15.80861553
ECCENTRICITY   = .0001175
INCLINATION    = 53.1587
RA_OF_ASC_NODE = 144.5315
ARG_OF_PERICENTER = 75.9239
MEAN_ANOMALY   = 300.0721

EPHEMERIS_TYPE = 0
CLASSIFICATION_TYPE = U
NORAD_CAT_ID   = 68096
ELEMENT_SET_NO = 999
REV_AT_EPOCH   = 364
BSTAR          = .24562E-3
MEAN_MOTION_DOT = .48022E-3
MEAN_MOTION_DDOT = 0

CCSDS_OMM_VERS = 2.0
CREATION_DATE  = 
ORIGINATOR     = 

OBJECT_NAME    = STARLINK-36853
OBJECT_ID      = 2026-042AE
CENTER_NAME    = EARTH
REF_FRAME      = TEME
TIME_SYSTEM    = UTC
MEAN_ELEMENT_THEORY = SGP/SGP4

EPOCH          = 2026-03-19T16:00:01.999584
MEAN_MOTION    = 15.80867010
ECCENTRICITY   = .0001227
INCLINATION    = 53.1624
RA_OF_ASC_NODE = 144.5494
ARG_OF_PERICENTER = 95.6872
MEAN_ANOMALY   = 271.7668

EPHEMERIS_TYPE = 0
CLASSIFICATION_TYPE = U
NORAD_CAT_ID   = 68097
ELEMENT_SET_NO = 999
REV_AT_EPOCH   = 365
BSTAR          = .87161E-4
MEAN_MOTION_DOT = .16532E-3
MEAN_MOTION_DDOT = 0

CCSDS_OMM_VERS = 2.0
CREATION_DATE  = 
ORIGINATOR     = 

OBJECT_NAME    = GLOBAL-34
OBJECT_ID      = 2026-043A
CENTER_NAME    = EARTH
REF_FRAME      = TEME
TIME_SYSTEM    = UTC
MEAN_ELEMENT_THEORY = SGP/SGP4

EPOCH          = 2026-03-18T22:19:55.821216
MEAN_MOTION    = 15.31604838
ECCENTRICITY   = .00056905
INCLINATION    = 42.0218
RA_OF_ASC_NODE = 22.1556
ARG_OF_PERICENTER = 345.5564
MEAN_ANOMALY   = 14.5110

EPHEMERIS_TYPE = 0
CLASSIFICATION_TYPE = U
NORAD_CAT_ID   = 68098
ELEMENT_SET_NO = 999
REV_AT_EPOCH   = 198
BSTAR          = .31504719E-3
MEAN_MOTION_DOT = .9586E-4
MEAN_MOTION_DDOT = 0

CCSDS_OMM_VERS = 2.0
CREATION_DATE  = 
ORIGINATOR     = 

OBJECT_NAME    = STARLINK-37022
OBJECT_ID      = 2026-044A
CENTER_NAME    = EARTH
REF_FRAME      = TEME
TIME_SYSTEM    = UTC
MEAN_ELEMENT_THEORY = SGP/SGP4

EPOCH          = 2026-03-19T16:00:01.999584
MEAN_MOTION    = 15.81091129
ECCENTRICITY   = .000188
INCLINATION    = 97.2846
RA_OF_ASC_NODE = 39.2818
ARG_OF_PERICENTER = 93.1585
MEAN_ANOMALY   = 116.7866

EPHEMERIS_TYPE = 0
CLASSIFICATION_TYPE = U
NORAD_CAT_ID   = 68101
ELEMENT_SET_NO = 999
REV_AT_EPOCH   = 300
BSTAR          = -.23959E-2
MEAN_MOTION_DOT = -.442229E-2
MEAN_MOTION_DDOT = 0

CCSDS_OMM_VERS = 2.0
CREATION_DATE  = 
ORIGINATOR     = 

OBJECT_NAME    = STARLINK-37046
OBJECT_ID      = 2026-044B
CENTER_NAME    = EARTH
REF_FRAME      = TEME
TIME_SYSTEM    = UTC
MEAN_ELEMENT_THEORY = SGP/SGP4

EPOCH          = 2026-03-19T16:00:01.999584
MEAN_MOTION    = 15.81360734
ECCENTRICITY   = .000132
INCLINATION    = 97.2846
RA_OF_ASC_NODE = 39.2838
ARG_OF_PERICENTER = 89.8663
MEAN_ANOMALY   = 124.2057

EPHEMERIS_TYPE = 0
CLASSIFICATION_TYPE = U
NORAD_CAT_ID   = 68102
ELEMENT_SET_NO = 999
REV_AT_EPOCH   = 300
BSTAR          = -.42973E-2
MEAN_MOTION_DOT = -.773311E-2
MEAN_MOTION_DDOT = 0

CCSDS_OMM_VERS = 2.0
CREATION_DATE  = 
ORIGINATOR     = 

OBJECT_NAME    = STARLINK-37018
OBJECT_ID      = 2026-044C
CENTER_NAME    = EARTH
REF_FRAME      = TEME
TIME_SYSTEM    = UTC
MEAN_ELEMENT_THEORY = SGP/SGP4

EPOCH          = 2026-03-19T16:00:01.999584
MEAN_MOTION    = 15.81459204
ECCENTRICITY   = .0001657
INCLINATION    = 97.2842
RA_OF_ASC_NODE = 39.2852
ARG_OF_PERICENTER = 88.1772
MEAN_ANOMALY   = 130.1123

EPHEMERIS_TYPE = 0
CLASSIFICATION_TYPE = U
NORAD_CAT_ID   = 68103
ELEMENT_SET_NO = 999
REV_AT_EPOCH   = 295
BSTAR          = -.50519E-2
MEAN_MOTION_DOT = -.9001E-2
MEAN_MOTION_DDOT = 0

