STARLINK-36320          
1 68090U 26042X   26078.66668981 -.01885627  00000+0 -11689-1 0  9994
2 68090  53.1587 144.5867 0000989  91.1258 258.3623 15.79427616  3641
STARLINK-36324          
1 68091U 26042Y   26078.66668981 -.00003233  00000+0 -16937-4 0  9993
2 68091  53.1584 144.6273 0000960  55.4812 273.9597 15.75231488  3648
STARLINK-36896          
1 68092U 26042Z   26078.66668981 -.00019572  00000+0 -95674-4 0  9992
2 68092  53.1622 144.5763 0001199  74.7812 279.8185 15.80910193  3656
STARLINK-36251          
1 68093U 26042AA  26078.66668981  .00024037  00000+0  12497-3 0  9994
2 68093  53.1584 144.5588 0001029  82.8445 280.3365 15.80875845  3643
STARLINK-36787          
1 68094U 26042AB  26078.66668981 -.00017328  00000+0 -10909-3 0  9998
2 68094  53.1588 144.5739 0000851  59.0534 296.1342 15.75242612  3647
STARLINK-36790          
1 68095U 26042AC  26078.66668981  .00010433  00000+0  56337-4 0  9993
2 68095  53.1621 144.5672 0001101  71.4061 287.5044 15.80871180  3641
STARLINK-36328          
1 68096U 26042AD  26078.66668981  .00048022  00000+0  24562-3 0  9993
2 68096  53.1587 144.5315 0001175  75.9239 300.0721 15.80861553  3640
STARLINK-36853          
1 68097U 26042AE  26078.66668981  .00016532  00000+0  87161-4 0  9990
2 68097  53.1624 144.5494 0001227  95.6872 271.7668 15.80867010  3650
GLOBAL-34               
1 68098U 26043A   26077.93050719  .00009586  00000+0  31505-3 0  9996
2 68098  42.0218  22.1556 0005690 345.5564  14.5110 15.31604838  1982
STARLINK-37022          
1 68101U 26044A   26078.66668981 -.00442229  00000+0 -23959-2 0  9999
2 68101  97.2846  39.2818 0001880  93.1585 116.7866 15.81091129  3008
STARLINK-37046          
1 68102U 26044B   26078.66668981 -.00773311  00000+0 -42973-2 0  9996
2 68102  97.2846  39.2838 0001320  89.8663 124.2057 15.81360734  3006
STARLINK-37018          
1 68103U 26044C   26078.66668981 -.00900100  00000+0 -50519-2 0  9990
2 68103  97.2842  39.2852 0001657  88.1772 130.1123 15.81459204  2959
